     3.00           N                   E                   RINEX VERSION / TYPE
BRD_USR             ESA                 20190106 141700  UTCPGM / RUN BY / DATE
 GAL   4.9750E+01  3.9062E-03 -3.2654E-03  0.0000E+00       IONOSPHERIC CORR
GAUT  0.0000000000E+00 0.000000000E+00      0 2035 GSTB   0 TIME SYSTEM CORR
GPGA -2.6484485716E-09 2.664535259E-15      0 2035 GSTB   0 TIME SYSTEM CORR
                                                            END OF HEADER
E36 2019 01 06 12 00 00 7.628629100509E-04-4.519051799434E-12 0.000000000000E+00
     7.200000000000E+01-1.808750000000E+02 2.889406069646E-09-3.744388285145E-01
    -8.540228009224E-06 3.252403112128E-04 2.061948180199E-06 5.440601541519E+03
     4.320000000000E+04-5.587935447693E-09-8.661453911636E-01 3.539025783539E-08
     9.852043573046E-01 3.071562500000E+02-1.628639774104E+00-5.740596261734E-09
    -2.903692379014E-10 2.580000000000E+02 2.035000000000E+03 0.000000000000E+00
     3.120000000000E+00 5.600000000000E+01 1.629814505577E-09 0.000000000000E+00
     4.390000000000E+04 0.000000000000E+00 0.000000000000E+00 0.000000000000E+00
E21 2019 01 06 12 00 00-5.130791105330E-04-1.847411112976E-12 0.000000000000E+00
     7.200000000000E+01 1.335625000000E+02 2.294024126741E-09-2.701339443322E+00
     6.273388862610E-06 4.910817369819E-05 1.207180321217E-05 5.440635059357E+03
     4.320000000000E+04 5.029141902924E-08-2.949078426051E+00 3.352761268616E-08
     9.899140655285E-01 9.634375000000E+01-3.334715690579E-01-5.084140346281E-09
    -1.267909956396E-10 5.210000000000E+02 2.035000000000E+03 0.000000000000E+00
     3.120000000000E+00 0.000000000000E+00-2.561137080193E-09-3.026798367500E-09
     4.391500000000E+04 0.000000000000E+00 0.000000000000E+00 0.000000000000E+00
E08 2019 01 06 12 00 00 6.428787077311E-03-7.446487870766E-12 0.000000000000E+00
     7.200000000000E+01 2.496875000000E+01 3.600149960697E-09 1.147347558488E-01
     1.259148120880E-06 2.272221026942E-04 5.511566996574E-06 5.440605884552E+03
     4.320000000000E+04 1.676380634308E-08 1.235700437369E+00-5.587935447693E-08
     9.581899803902E-01 2.177500000000E+02 4.951528143594E-01-5.635949045614E-09
     4.260891768959E-10 5.210000000000E+02 2.035000000000E+03 0.000000000000E+00
     3.120000000000E+00 0.000000000000E+00-8.381903171539E-09-9.778887033463E-09
     4.403500000000E+04 0.000000000000E+00 0.000000000000E+00 0.000000000000E+00
E08 2019 01 06 12 00 00 6.428787775803E-03-7.432277016051E-12 0.000000000000E+00
     7.200000000000E+01 2.496875000000E+01 3.600149960697E-09 1.147347558488E-01
     1.259148120880E-06 2.272221026942E-04 5.511566996574E-06 5.440605884552E+03
     4.320000000000E+04 1.676380634308E-08 1.235700437369E+00-5.587935447693E-08
     9.581899803902E-01 2.177500000000E+02 4.951528143594E-01-5.635949045614E-09
     4.260891768959E-10 2.580000000000E+02 2.035000000000E+03 0.000000000000E+00
     3.120000000000E+00 0.000000000000E+00-8.381903171539E-09 0.000000000000E+00
     4.405000000000E+04 0.000000000000E+00 0.000000000000E+00 0.000000000000E+00
E26 2019 01 06 11 30 00 5.050913663581E-03-4.328626346251E-11 0.000000000000E+00
     6.900000000000E+01-1.650937500000E+02 2.938693836965E-09 3.032529360494E+00
    -7.877126336098E-06 3.237710334361E-04 2.093613147736E-06 5.440613340378E+03
     4.140000000000E+04 3.539025783539E-08-8.571892545388E-01-4.097819328308E-08
     9.783184004425E-01 3.057500000000E+02-2.112454383793E+00-5.733453107050E-09
    -2.346526313668E-10 5.210000000000E+02 2.035000000000E+03 0.000000000000E+00
     3.120000000000E+00 0.000000000000E+00 9.313225746155E-10 1.164153218269E-09
     4.421500000000E+04 0.000000000000E+00 0.000000000000E+00 0.000000000000E+00
E26 2019 01 06 11 30 00 5.050912965089E-03-4.330047431722E-11 0.000000000000E+00
     6.900000000000E+01-1.650937500000E+02 2.938693836965E-09 3.032529360494E+00
    -7.877126336098E-06 3.237710334361E-04 2.093613147736E-06 5.440613340378E+03
     4.140000000000E+04 3.539025783539E-08-8.571892545388E-01-4.097819328308E-08
     9.783184004425E-01 3.057500000000E+02-2.112454383793E+00-5.733453107050E-09
    -2.346526313668E-10 2.580000000000E+02 2.035000000000E+03 0.000000000000E+00
     3.120000000000E+00 0.000000000000E+00 9.313225746155E-10 0.000000000000E+00
     4.425000000000E+04 0.000000000000E+00 0.000000000000E+00 0.000000000000E+00
E01 2019 01 06 12 10 00-5.149628850631E-04-8.071765478235E-12 0.000000000000E+00
     7.300000000000E+01 1.334375000000E+02 2.295809915412E-09-2.899902964393E+00
     6.252899765968E-06 1.140916720033E-04 1.112557947636E-05 5.440632843018E+03
     4.380000000000E+04-6.146728992462E-08-2.946473514620E+00 1.098960638046E-07
     9.903496040362E-01 1.187812500000E+02-8.622269797175E-01-5.198430821224E-09
    -2.057228548969E-10 5.210000000000E+02 2.035000000000E+03 0.000000000000E+00
     3.120000000000E+00 0.000000000000E+00-4.656612873077E-09-5.355104804039E-09
     4.448500000000E+04 0.000000000000E+00 0.000000000000E+00 0.000000000000E+00
E02 2019 01 06 12 10 00 4.219700349495E-05 1.492139745096E-12 0.000000000000E+00
     7.300000000000E+01 1.622812500000E+02 2.257594037853E-09-3.436117520773E-01
     7.417052984238E-06 2.646184293553E-04 1.262873411179E-05 5.440625959396E+03
     4.380000000000E+04 1.471489667892E-07-2.946507211475E+00-1.210719347000E-07
     9.903588716222E-01 8.181250000000E+01-2.786403724785E-01-4.954134931034E-09
    -1.950081228711E-10 5.210000000000E+02 2.035000000000E+03 0.000000000000E+00
     3.120000000000E+00 0.000000000000E+00-5.820766091347E-09-6.984919309616E-09
     4.448500000000E+04 0.000000000000E+00 0.000000000000E+00 0.000000000000E+00
E05 2019 01 06 12 10 00 1.297451090068E-04-6.494360604847E-12 0.000000000000E+00
     7.300000000000E+01 3.250000000000E+01 3.737298530628E-09 6.859378873577E-01
     1.508742570877E-06 1.457293983549E-04 5.228444933891E-06 5.440604026794E+03
     4.380000000000E+04 1.862645149231E-09 1.244319780993E+00 2.421438694000E-08
     9.522171579753E-01 2.233437500000E+02 1.569578930257E+00-5.686665443870E-09
     4.593048461762E-10 5.210000000000E+02 2.035000000000E+03 0.000000000000E+00
     3.120000000000E+00 0.000000000000E+00-1.396983861923E-09-1.629814505577E-09
     4.448500000000E+04 0.000000000000E+00 0.000000000000E+00 0.000000000000E+00
E07 2019 01 06 12 10 00-1.075001200661E-04-7.077005648171E-12 0.000000000000E+00
     7.300000000000E+01 3.159375000000E+01 3.644080362003E-09-1.745855388856E-01
     1.452863216400E-06 1.439516199753E-04 5.519017577171E-06 5.440607509613E+03
     4.380000000000E+04-1.117587089539E-08 1.244336683549E+00-3.352761268616E-08
     9.522476466510E-01 2.170937500000E+02 7.221444354144E-02-5.659878613805E-09
     4.439470636057E-10 5.210000000000E+02 2.035000000000E+03 0.000000000000E+00
     3.120000000000E+00 0.000000000000E+00 2.328306436539E-10 2.328306436539E-10
     4.448500000000E+04 0.000000000000E+00 0.000000000000E+00 0.000000000000E+00
E08 2019 01 06 12 10 00 6.428782711737E-03-7.432277016051E-12 0.000000000000E+00
     7.300000000000E+01 2.493750000000E+01 3.605507326709E-09 1.891293554825E-01
     1.270323991776E-06 2.272179117426E-04 5.517154932022E-06 5.440605876923E+03
     4.380000000000E+04 2.421438694000E-08 1.235697030233E+00-5.587935447693E-08
     9.581902115313E-01 2.177812500000E+02 4.951441729023E-01-5.639520622956E-09
     4.307322274405E-10 5.210000000000E+02 2.035000000000E+03 0.000000000000E+00
     3.120000000000E+00 0.000000000000E+00-8.381903171539E-09-9.778887033463E-09
     4.448500000000E+04 0.000000000000E+00 0.000000000000E+00 0.000000000000E+00
E09 2019 01 06 12 10 00 6.566365947947E-03-1.129762949859E-11 0.000000000000E+00
     7.300000000000E+01 3.168750000000E+01 3.609078904051E-09 2.904751712740E+00
     1.396983861923E-06 2.468401798978E-04 5.295500159264E-06 5.440604284286E+03
     4.380000000000E+04-3.911554813385E-08 1.235695118199E+00 2.235174179077E-08
     9.582203549583E-01 2.240000000000E+02 1.344593359025E-01-5.652021143653E-09
     4.139458139333E-10 5.210000000000E+02 2.035000000000E+03 0.000000000000E+00
     3.120000000000E+00 0.000000000000E+00-3.492459654808E-09-3.958120942116E-09
     4.448500000000E+04 0.000000000000E+00 0.000000000000E+00 0.000000000000E+00
E11 2019 01 06 12 10 00 5.719147506170E-03 1.008970684779E-12 0.000000000000E+00
     7.300000000000E+01-1.793437500000E+02 2.889406069646E-09-7.898016697012E-01
    -8.339062333107E-06 2.415983472019E-04 2.318993210793E-06 5.440604963303E+03
     4.380000000000E+04-4.097819328308E-08-8.608391020211E-01 2.980232238770E-08
     9.819591822214E-01 2.969375000000E+02-3.587932897750E-01-5.729524371974E-09
    -2.728685089258E-10 5.210000000000E+02 2.035000000000E+03 0.000000000000E+00
     3.120000000000E+00 0.000000000000E+00-1.839362084866E-08-2.002343535423E-08
     4.448500000000E+04 0.000000000000E+00 0.000000000000E+00 0.000000000000E+00
E13 2019 01 06 12 10 00 3.813973162323E-04 5.115907697473E-13 0.000000000000E+00
     7.300000000000E+01-1.607812500000E+02 2.860119135442E-09-2.677544194235E+00
    -7.525086402893E-06 3.339310642332E-04 1.125037670135E-06 5.440598821640E+03
     4.380000000000E+04 5.401670932770E-08-8.661389177511E-01 3.725290298462E-09
     9.852001528780E-01 3.252187500000E+02-1.606261813218E+00-5.687379759338E-09
    -2.364384200378E-10 5.210000000000E+02 2.035000000000E+03 0.000000000000E+00
     3.120000000000E+00 4.550000000000E+02-4.656612873077E-09-5.820766091347E-09
     4.448500000000E+04 0.000000000000E+00 0.000000000000E+00 0.000000000000E+00
